ANDESITE                
1 45726U 20037D   26068.46720933  .00004478  00000+0  31876-3 0  9992
2 45726  97.7890 260.5174 0009953 141.6473 218.5462 15.05115692310662
STARLINK-31013          
1 58526U 23191U   26068.43887711  .00028971  00000+0  19975-2 0  9992
2 58526  43.0005 106.4881 0000959   8.2742 351.8118 15.05312624125413
