[{"OBJECT_NAME":"ANDESITE","OBJECT_ID":"2020-037D","EPOCH":"2026-03-09T11:12:46.886112","MEAN_MOTION":15.05115692,"ECCENTRICITY":0.00099538,"INCLINATION":97.789,"RA_OF_ASC_NODE":260.5174,"ARG_OF_PERICENTER":141.6473,"MEAN_ANOMALY":218.5462,"EPHEMERIS_TYPE":0,"CLASSIFICATION_TYPE":"U","NORAD_CAT_ID":45726,"ELEMENT_SET_NO":999,"REV_AT_EPOCH":31066,"BSTAR":0.00031876291,"MEAN_MOTION_DOT":4.478e-5,"MEAN_MOTION_DDOT":0},{"OBJECT_NAME":"STARLINK-31013","OBJECT_ID":"2023-191U","EPOCH":"2026-03-09T10:31:58.982304","MEAN_MOTION":15.05312624,"ECCENTRICITY":9.596e-5,"INCLINATION":43.0005,"RA_OF_ASC_NODE":106.4881,"ARG_OF_PERICENTER":8.2742,"MEAN_ANOMALY":351.8118,"EPHEMERIS_TYPE":0,"CLASSIFICATION_TYPE":"U","NORAD_CAT_ID":58526,"ELEMENT_SET_NO":999,"REV_AT_EPOCH":12541,"BSTAR":0.0019974711,"MEAN_MOTION_DOT":0.00028971,"MEAN_MOTION_DDOT":0}]
